STARLINK-3556           
1 51877U 22022AB  25064.83108546 -.00000323  00000+0 -22159-5 0  9991
2 51877  53.2161 214.9879 0001330  89.1863 270.9282 15.08838092167569
STARLINK-3575           
1 51878U 22022AC  25064.70872545  .00002438  00000+0  17125-3 0  9997
2 51878  53.2162 225.5377 0001137  76.2428 283.8691 15.08833827167413
STARLINK-3572           
1 51879U 22022AD  25064.69126574 -.00001735  00000+0 -90986-4 0  9998
2 51879  53.2146 215.6155 0001117 108.1850 251.9264 15.08824885167542
STARLINK-3566           
1 51880U 22022AE  25064.71237037  .00000522  00000+0  50893-4 0  9994
2 51880  53.2163 225.2414 0001263  93.7914 266.3222 15.08844618167416
STARLINK-3504           
1 51881U 22022AF  25064.81638066  .00000025  00000+0  19670-4 0  9999
2 51881  53.2157 215.0512 0001076 103.3886 256.7226 15.08839721167612
STARLINK-3570           
1 51882U 22022AG  25064.82837497  .00001212  00000+0  94254-4 0  9990
2 51882  53.2157 215.0098 0001345  93.4251 266.6895 15.08839263167619
STARLINK-3576           
1 51883U 22022AH  25064.82742755 -.00000010  00000+0  17443-4 0  9994
2 51883  53.2169 215.1860 0001272  87.7459 272.3679 15.08846153167559
STARLINK-3577           
1 51884U 22022AJ  25064.68756909  .00000437  00000+0  45526-4 0  9990
2 51884  53.2161 215.6336 0001219  82.0194 278.0936 15.08839374167624
STARLINK-3584           
1 51885U 22022AK  25064.73908234  .00000596  00000+0  55506-4 0  9992
2 51885  53.2169 215.4034 0001287  86.9017 273.2123 15.08843909167543
STARLINK-3565           
1 51886U 22022AL  25064.68020353  .00001101  00000+0  87250-4 0  9998
2 51886  53.2169 215.6664 0001391  86.8949 273.2202 15.08847983167548
STARLINK-3551           
1 51887U 22022AM  25064.80164495  .00000399  00000+0  43139-4 0  9995
2 51887  53.2159 215.1228 0001231  88.4077 271.7056 15.08841761167551
STARLINK-3536           
1 51888U 22022AN  25064.41158911 -.00000535  00000+0 -15539-4 0  9996
2 51888  53.2166 216.8729 0001334  86.4901 273.6243 15.08826232167502
STARLINK-3547           
1 51889U 22022AP  25064.79060434  .00000653  00000+0  59123-4 0  9996
2 51889  53.2155 215.1721 0001215  85.9803 274.1328 15.08841127167553
STARLINK-3519           
1 51890U 22022AQ  25064.91668981  .00122972  00000+0  18668-2 0  9999
2 51890  53.1844 178.0201 0006891 312.2584 234.8551 15.53690690  5960
STARLINK-3549           
1 51891U 22022AR  25064.72068479 -.00004921  00000+0 -29114-3 0  9999
2 51891  53.2166 215.4888 0001231  80.8803 279.2329 15.08859743167591
STARLINK-3587           
1 51892U 22022AS  25064.79429510 -.00001804  00000+0 -95240-4 0  9995
2 51892  53.2163 215.1561 0001198  83.4991 276.6138 15.08849708167558
STARLINK-3579           
1 51893U 22022AT  25064.71332745  .00000433  00000+0  45290-4 0  9996
2 51893  53.2164 215.5189 0001211  87.6221 272.4909 15.08840035167608
STARLINK-3595           
1 51894U 22022AU  25064.71700830 -.00000029  00000+0  16286-4 0  9996
2 51894  53.2163 215.5031 0001228  90.0870 270.0262 15.08837155167605
STARLINK-3594           
1 51895U 22022AV  25064.64341046  .00000077  00000+0  22907-4 0  9998
2 51895  53.2165 215.8324 0001381  90.4610 269.6540 15.08837881167533
STARLINK-3593           
1 51896U 22022AW  25064.73176122  .00001222  00000+0  94857-4 0  9996
2 51896  53.2164 215.6579 0001806  60.8937 299.2235 15.08851699167597
STARLINK-3598           
1 51897U 22022AX  25064.70596950  .00000219  00000+0  31841-4 0  9998
2 51897  53.2168 215.5508 0001217  88.8566 271.2566 15.08838687167541
STARLINK-3597           
1 51898U 22022AY  25064.83476638  .00000688  00000+0  61333-4 0  9992
2 51898  53.2172 214.9727 0001985  61.3569 298.7623 15.08853133167613
STARLINK-3700           
1 51956U 22025A   25064.78027793  .00001013  00000+0  83459-4 0  9994
2 51956  53.0542 237.8297 0001454  85.7092 274.4064 15.08016045165447
STARLINK-3694           
1 51957U 22025B   25064.91370563  .00001934  00000+0  14863-3 0  9990
2 51957  53.0538 251.3694 0001170  89.0993 271.0130 15.06410435166376
STARLINK-3692           
1 51958U 22025C   25064.90898481  .00001900  00000+0  14032-3 0  9995
2 51958  53.0539 237.2558 0001191  84.7893 275.3232 15.08032772165469
STARLINK-3704           
1 51959U 22025D   25064.78469297  .00000473  00000+0  50632-4 0  9992
2 51959  53.0538 251.9230 0001288  82.8956 277.2180 15.06400764165242
STARLINK-3691           
1 51960U 22025E   25064.91003300  .00009584  00000+0  66113-3 0  9990
2 51960  53.0533 251.3639 0001440  90.2133 269.9020 15.06416807165264
STARLINK-3697           
1 51962U 22025G   25064.81147604 -.00002905  00000+0 -17619-3 0  9996
2 51962  53.0538 242.3841 0001177  88.3555 271.7569 15.06407616165389
STARLINK-3675           
1 51963U 22025H   25064.76972562  .00000367  00000+0  41938-4 0  9990
2 51963  53.0541 237.8696 0001361  94.0475 266.0671 15.08024630165442
STARLINK-3690           
1 51964U 22025J   25064.85675420 -.00003690  00000+0 -22917-3 0  9993
2 51964  53.0536 242.7697 0001172  85.8218 274.2904 15.06371067165386
STARLINK-3696           
1 51965U 22025K   25064.77363594  .00000589  00000+0  58454-4 0  9999
2 51965  53.0537 251.9716 0001285  92.1138 267.9998 15.06398957165243
STARLINK-3699           
1 51966U 22025L   25064.87915542  .00002203  00000+0  16674-3 0  9999
2 51966  53.0540 246.4810 0001578  92.1602 267.9568 15.06406297166424
STARLINK-3681           
1 51968U 22025N   25064.77195142 -.00000259  00000+0  15020-5 0  9992
2 51968  53.0536 243.0621 0001202  99.8485 260.2640 15.06394839165379
STARLINK-3680           
1 51969U 22025P   25064.87889564  .00000270  00000+0  37038-4 0  9996
2 51969  53.0540 242.8845 0001347  93.0273 267.0870 15.06391940165371
STARLINK-3677           
1 51970U 22025Q   25064.87547212  .00000476  00000+0  50832-4 0  9994
2 51970  53.0534 246.5710 0001350  89.5863 270.5280 15.06395358165334
STARLINK-3669           
1 51971U 22025R   25064.90833248  .00008551  00000+0  59233-3 0  9991
2 51971  53.0536 242.4038 0001452   2.1248 357.9747 15.06393625166509
STARLINK-3671           
1 51972U 22025S   25064.73171889 -.00000402  00000+0 -81310-5 0  9991
2 51972  53.0548 247.1997 0001319  88.1332 271.9808 15.06394176165312
STARLINK-3679           
1 51973U 22025T   25064.80542982 -.00000823  00000+0 -36382-4 0  9991
2 51973  53.0541 246.8105 0001224  88.5049 271.6081 15.06397035165325
STARLINK-3672           
1 51974U 22025U   25064.92706505  .00000113  00000+0  26456-4 0  9999
2 51974  53.0537 246.3232 0001403  86.4271 273.6878 15.06400649166424
STARLINK-3674           
1 51975U 22025V   25064.77833235  .00003837  00000+0  27644-3 0  9999
2 51975  53.0535 242.5846 0001368  88.4984 271.6161 15.06387265165380
STARLINK-3663           
1 51976U 22025W   25064.76074003  .00029689  00000+0  12382-2 0  9994
2 51976  53.2153 246.5840 0004373  44.3311 315.8037 15.23464152165496
STARLINK-3660           
1 51977U 22025X   25064.79340525  .00000492  00000+0  49011-4 0  9995
2 51977  53.2161 235.1694 0001311  86.8365 273.2777 15.08840467165641
STARLINK-3656           
1 51979U 22025Z   25064.93044282  .00000503  00000+0  49699-4 0  9999
2 51979  53.2157 254.5438 0001379  92.3596 267.7554 15.08846233165391
STARLINK-3649           
1 51980U 22025AA  25064.90836925  .00000950  00000+0  77748-4 0  9993
2 51980  53.2162 254.6428 0001500  84.4405 275.6758 15.08837140165386
STARLINK-3635           
1 51981U 22025AB  25064.79060702  .00000275  00000+0  35335-4 0  9999
2 51981  53.2166 255.1726 0000227 331.4607  28.6372 15.08841880165364
STARLINK-3655           
1 51983U 22025AD  25064.91940416  .00001135  00000+0  89344-4 0  9999
2 51983  53.2166 254.6011 0000877  80.6117 279.4974 15.08845574166502
STARLINK-3664           
1 51984U 22025AE  25064.75846782  .00000192  00000+0  30132-4 0  9996
2 51984  53.2162 255.4050 0001446 105.2686 254.8466 15.08829981165369
STARLINK-3651           
1 51985U 22025AF  25064.91300646  .00001938  00000+0  13976-3 0  9994
2 51985  53.2166 254.6331 0001714  85.2389 274.8799 15.08855964165385
STARLINK-3645           
1 51986U 22025AG  25064.92674963  .00000477  00000+0  48056-4 0  9997
2 51986  53.2159 254.4060 0001338  90.8856 269.2290 15.08841633165391
STARLINK-3644           
1 51987U 22025AH  25064.75749241  .00001181  00000+0  92296-4 0  9999
2 51987  53.2169 255.3255 0001465 100.4389 259.6768 15.08838246165365
STARLINK-3640           
1 51988U 22025AJ  25064.80533319 -.00003301  00000+0 -18940-3 0  9994
2 51988  53.2176 255.1066 0001232  88.3652 271.7482 15.08836542165377
STARLINK-3642           
1 51989U 22025AK  25064.82005096 -.00000104  00000+0  11586-4 0  9990
2 51989  53.2172 255.0422 0001365  86.9856 273.1292 15.08845824166476
STARLINK-3657           
1 51990U 22025AL  25064.78876578  .00000562  00000+0  53390-4 0  9994
2 51990  53.2160 235.1808 0001221  90.5910 269.5222 15.08842642165640
STARLINK-3652           
1 51991U 22025AM  25064.74644807  .00000065  00000+0  22207-4 0  9990
2 51991  53.2155 255.3720 0001434  86.3375 273.7781 15.08839421165363
STARLINK-3643           
1 51992U 22025AN  25064.77772695  .00000809  00000+0  68930-4 0  9990
2 51992  53.2161 235.2315 0001077  97.7036 262.4078 15.08840574165210
STARLINK-3648           
1 51993U 22025AP  25064.80167080 -.00002208  00000+0 -12066-3 0  9996
2 51993  53.2164 255.1246 0001401  94.3863 265.7289 15.08840601166481
STARLINK-3647           
1 51994U 22025AQ  25064.90652420  .00001035  00000+0  83092-4 0  9998
2 51994  53.2163 234.6534 0001287  88.1547 271.9592 15.08840984166777
STARLINK-3636           
1 51995U 22025AR  25064.85133325  .00000194  00000+0  30274-4 0  9990
2 51995  53.2175 234.9014 0001577  85.4815 274.6358 15.08837623165222
STARLINK-3538           
1 51996U 22025AS  25064.77036988 -.00000115  00000+0  10853-4 0  9994
2 51996  53.2173 235.2649 0000802  89.2087 270.8997 15.08834252165224
